ONEWEB-0369             
1 49295U 21090S   23295.54661804  .00000023  00000+0  23888-4 0  9993
2 49295  87.9186 137.7683 0001822  78.6736 281.4601 13.19725107 98651
ONEWEB-0370             
1 49296U 21090T   23295.84870945  .00004161  00000+0  10201-1 0  9994
2 49296  87.9140 107.2238 0002283  92.9202 267.2193 13.20751431103341
ONEWEB-0371             
1 49297U 21090U   23295.85777499  .00000083  00000+0  17591-3 0  9996
2 49297  87.9187 137.6957 0001675  79.2929 280.8393 13.19729165100028
ONEWEB-0372             
1 49298U 21090V   23295.53514329 -.00000008  00000+0 -51946-4 0  9995
2 49298  87.9150 107.2864 0001560  74.8993 285.2313 13.20774328101973
ONEWEB-0373             
1 49299U 21090W   23295.56249862  .00000022  00000+0  23407-4 0  9991
2 49299  87.9215 107.2603 0002071  89.7519 270.3852 13.20769564103166
ONEWEB-0374             
1 49300U 21090X   23295.82465248 -.00001821  00000+0 -49455-2 0  9990
2 49300  87.8936 122.4743 0002227  96.9986 263.1397 13.14515587101634
ONEWEB-0375             
1 49301U 21090Y   23295.54986679  .00000037  00000+0  58245-4 0  9991
2 49301  87.9136 107.2851 0002160 108.1307 252.0062 13.20774034102669
ONEWEB-0376             
1 49302U 21090Z   23295.85621219  .00009744  00000+0  24299-1 0  9995
2 49302  87.9188 137.7136 0002798  80.6968 279.4481 13.19675749100011
